NORAD_CAT_ID,OBJECT_NAME,OBJECT_TYPE,EPOCH,MEAN_MOTION,ECCENTRICITY,INCLINATION,RA_OF_ASC_NODE,ARG_OF_PERICENTER,MEAN_ANOMALY,BSTAR,MEAN_MOTION_DOT,MEAN_MOTION_DDOT,TLE_LINE0,TLE_LINE1,TLE_LINE2,SEMIMAJOR_AXIS,PERIOD,APOGEE,PERIGEE,DECAYED
52705.0,STARLINK-3844,PAYLOAD,2024-05-18 22:15:13,15.08845024,0.0003274,53.2143,215.9094,69.9575,290.1769,0.00060276,9.319e-05,0.0,0 STARLINK-3844,1 52705U 22053BB  24139.92723641  .00009319  00000-0  60276-3 0  9990,2 52705  53.2143 215.9094 0003274  69.9575 290.1769 15.08845024111718,6917.865,95.437,541.995,537.465,0.0
52705.0,STARLINK-3844,PAYLOAD,2024-05-19 14:09:04,15.0882417,0.0001854,53.216,212.9334,66.2964,293.8223,-0.00025304,-4.311e-05,0.0,0 STARLINK-3844,1 52705U 22053BB  24140.58964068 -.00004311  00000-0 -25304-3 0  9996,2 52705  53.2160 212.9334 0001854  66.2964 293.8223 15.08824170111810,6917.929,95.439,541.076,538.511,0.0
52705.0,STARLINK-3844,PAYLOAD,2024-05-20 10:49:05,15.08871302,0.0001843,53.2154,209.0715,58.6133,301.5039,0.001927,0.0003054,0.0,0 STARLINK-3844,1 52705U 22053BB  24141.45075940  .00030540  00000-0  19270-2 0  9990,2 52705  53.2154 209.0715 0001843  58.6133 301.5039 15.08871302111512,6917.785,95.436,540.925,538.375,0.0
52705.0,STARLINK-3844,PAYLOAD,2024-05-21 04:18:19,15.08863442,0.0001896,53.2154,205.8009,65.5325,294.5864,0.0014817,0.00023387,0.0,0 STARLINK-3844,1 52705U 22053BB  24142.17939802  .00023387  00000-0  14817-2 0  9999,2 52705  53.2154 205.8009 0001896  65.5325 294.5864 15.08863442111625,6917.809,95.436,540.985,538.362,0.0
52705.0,STARLINK-3844,PAYLOAD,2024-05-21 09:04:29,15.08840614,0.0001695,53.2157,204.909,57.892,302.2236,0.0014461,0.00022802,0.0,0 STARLINK-3844,1 52705U 22053BB  24142.37811920  .00022802  00000-0  14461-2 0  9997,2 52705  53.2157 204.9090 0001695  57.8920 302.2236 15.08840614111659,6917.879,95.438,540.916,538.571,0.0
52705.0,STARLINK-3844,PAYLOAD,2024-05-22 10:30:39,15.08838172,0.0001745,53.2158,200.1481,74.3419,285.7765,0.00018407,2.642e-05,0.0,0 STARLINK-3844,1 52705U 22053BB  24143.43796279  .00002642  00000-0  18407-3 0  9999,2 52705  53.2158 200.1481 0001745  74.3419 285.7765 15.08838172111811,6917.886,95.438,540.958,538.544,0.0
52705.0,STARLINK-3844,PAYLOAD,2024-05-23 10:21:26,15.08843321,0.0001782,53.2166,195.6909,87.1468,272.9728,0.00022028,3.22e-05,0.0,0 STARLINK-3844,1 52705U 22053BB  24144.43156201  .00003220  00000-0  22028-3 0  9992,2 52705  53.2166 195.6909 0001782  87.1468 272.9728 15.08843321112393,6917.87,95.437,540.968,538.502,0.0
52705.0,STARLINK-3844,PAYLOAD,2024-05-24 03:50:41,15.08845819,0.0001783,53.2165,192.4216,91.2258,268.8938,0.00018582,2.671e-05,0.0,0 STARLINK-3844,1 52705U 22053BB  24145.16019936  .00002671  00000-0  18582-3 0  9995,2 52705  53.2165 192.4216 0001783  91.2258 268.8938 15.08845819112078,6917.863,95.437,540.961,538.494,0.0
52705.0,STARLINK-3844,PAYLOAD,2024-05-24 08:36:50,15.08849007,0.0001701,53.2162,191.5289,87.8619,272.2568,0.00018629,2.679e-05,0.0,0 STARLINK-3844,1 52705U 22053BB  24145.35891704  .00002679  00000-0  18629-3 0  9997,2 52705  53.2162 191.5289 0001701  87.8619 272.2568 15.08849007112539,6917.853,95.437,540.895,538.541,0.0
52705.0,STARLINK-3844,PAYLOAD,2024-05-25 11:38:24,15.08834381,0.0001698,53.2155,186.471,80.2092,279.9092,-8.6232e-05,-1.66e-05,0.0,0 STARLINK-3844,1 52705U 22053BB  24146.48500029 -.00001660  00000-0 -86232-4 0  9996,2 52705  53.2155 186.4710 0001698  80.2092 279.9092 15.08834381112276,6917.898,95.438,540.937,538.588,0.0
52705.0,STARLINK-3844,PAYLOAD,2024-05-26 01:56:50,15.08867052,0.00013,53.2159,183.7961,96.1349,263.9791,0.00025796,3.823e-05,0.0,0 STARLINK-3844,1 52705U 22053BB  24147.08114303  .00003823  00000-0  25796-3 0  9997,2 52705  53.2159 183.7961 0001300  96.1349 263.9791 15.08867052112369,6917.798,95.436,540.562,538.763,0.0
52705.0,STARLINK-3844,PAYLOAD,2024-05-26 11:29:10,15.08847579,0.000161,53.2162,182.0102,107.6429,252.4739,3.9639e-05,3.43e-06,0.0,0 STARLINK-3844,1 52705U 22053BB  24147.47859915  .00000343  00000-0  39639-4 0  9991,2 52705  53.2162 182.0102 0001610 107.6429 252.4739 15.08847579112427,6917.857,95.437,540.836,538.608,0.0
52705.0,STARLINK-3844,PAYLOAD,2024-05-26 19:26:07,15.08831536,0.0001372,53.2163,180.5254,94.3019,265.813,6.7342e-05,7.84e-06,0.0,0 STARLINK-3844,1 52705U 22053BB  24147.80980888  .00000784  00000-0  67342-4 0  9993,2 52705  53.2163 180.5254 0001372  94.3019 265.8130 15.08831536112475,6917.906,95.438,540.72,538.822,0.0
52705.0,STARLINK-3844,PAYLOAD,2024-05-27 09:44:35,15.0883489,0.0001388,53.2164,177.8488,88.6502,271.4649,9.0464e-05,1.152e-05,0.0,0 STARLINK-3844,1 52705U 22053BB  24148.40596936  .00001152  00000-0  90464-4 0  9998,2 52705  53.2164 177.8488 0001388  88.6502 271.4649 15.08834890112995,6917.896,95.438,540.721,538.801,0.0
52705.0,STARLINK-3844,PAYLOAD,2024-05-28 01:38:26,15.08839901,0.0001562,53.216,174.8754,80.6416,279.4753,7.7786e-05,9.5e-06,0.0,0 STARLINK-3844,1 52705U 22053BB  24149.06836783  .00000950  00000-0  77786-4 0  9995,2 52705  53.2160 174.8754 0001562  80.6416 279.4753 15.08839901112660,6917.881,95.438,540.826,538.665,0.0
52705.0,STARLINK-3844,PAYLOAD,2024-05-28 07:59:59,15.08841178,0.000153,53.2159,173.6859,82.2181,277.8984,8.0841e-05,9.99e-06,0.0,0 STARLINK-3844,1 52705U 22053BB  24149.33332689  .00000999  00000-0  80841-4 0  9990,2 52705  53.2159 173.6859 0001530  82.2181 277.8984 15.08841178113133,6917.877,95.437,540.8,538.683,0.0
52705.0,STARLINK-3844,PAYLOAD,2024-05-29 04:39:59,15.08843732,0.0001384,53.2156,169.8195,85.7168,274.3982,0.0001062,1.403e-05,0.0,0 STARLINK-3844,1 52705U 22053BB  24150.19444307  .00001403  00000-0  10620-3 0  9995,2 52705  53.2156 169.8195 0001384  85.7168 274.3982 15.08843732112834,6917.869,95.437,540.691,538.777,0.0
52705.0,STARLINK-3844,PAYLOAD,2024-05-29 07:50:46,15.08844311,0.0001379,53.2157,169.2248,85.3276,274.7874,0.00010893,1.446e-05,0.0,0 STARLINK-3844,1 52705U 22053BB  24150.32692250  .00001446  00000-0  10893-3 0  9991,2 52705  53.2157 169.2248 0001379  85.3276 274.7874 15.08844311113286,6917.867,95.437,540.686,538.778,0.0
52705.0,STARLINK-3844,PAYLOAD,2024-05-30 07:41:33,15.08844107,0.0001384,53.2158,164.7632,87.1629,272.9522,3.2796e-05,2.34e-06,0.0,0 STARLINK-3844,1 52705U 22053BB  24151.32052319  .00000234  00000-0  32796-4 0  9999,2 52705  53.2158 164.7632 0001384  87.1629 272.9522 15.08844107113005,6917.868,95.437,540.69,538.775,0.0
52705.0,STARLINK-3844,PAYLOAD,2024-05-31 04:21:34,15.08836752,0.0001399,53.2155,160.8977,90.3498,269.7655,-1.8329e-05,-5.8e-06,0.0,0 STARLINK-3844,1 52705U 22053BB  24152.18164928 -.00000580  00000-0 -18329-4 0  9996,2 52705  53.2155 160.8977 0001399  90.3498 269.7655 15.08836752113139,6917.89,95.438,540.723,538.788,0.0
52705.0,STARLINK-3844,PAYLOAD,2024-05-31 07:32:20,15.08836873,0.0001405,53.2156,160.3028,90.6077,269.5076,-2.0731e-05,-6.18e-06,0.0,0 STARLINK-3844,1 52705U 22053BB  24152.31412908 -.00000618  00000-0 -20731-4 0  9997,2 52705  53.2156 160.3028 0001405  90.6077 269.5076 15.08836873113584,6917.89,95.438,540.727,538.783,0.0
52705.0,STARLINK-3844,PAYLOAD,2024-05-31 17:04:39,15.08839309,0.0001401,53.216,158.5189,88.4298,271.6854,1.5037e-05,-4.9e-07,0.0,0 STARLINK-3844,1 52705U 22053BB  24152.71156711 -.00000049  00000-0  15037-4 0  9998,2 52705  53.2160 158.5189 0001401  88.4298 271.6854 15.08839309113644,6917.883,95.438,540.717,538.778,0.0
52705.0,STARLINK-3844,PAYLOAD,2024-06-01 04:12:22,15.08819612,0.0001216,53.2161,156.4378,58.9901,301.1211,-0.00010807,-2.006e-05,0.0,0 STARLINK-3844,1 52705U 22053BB  24153.17526432 -.00002006  00000-0 -10807-3 0  9995,2 52705  53.2161 156.4378 0001216  58.9901 301.1211 15.08819612113280,6917.943,95.439,540.649,538.966,0.0
52705.0,STARLINK-3844,PAYLOAD,2024-06-01 07:23:09,15.08814444,0.0001283,53.2161,155.8406,73.1515,286.9617,-0.00016726,-2.947e-05,0.0,0 STARLINK-3844,1 52705U 22053BB  24153.30775061 -.00002947  00000-0 -16726-3 0  9994,2 52705  53.2161 155.8406 0001283  73.1515 286.9617 15.08814444113737,6917.959,95.439,540.711,538.936,0.0
52705.0,STARLINK-3844,PAYLOAD,2024-06-02 04:03:09,15.08832921,0.000136,53.2161,151.9767,79.6161,280.4985,7.4243e-05,8.94e-06,0.0,0 STARLINK-3844,1 52705U 22053BB  24154.16886234  .00000894  00000-0  74243-4 0  9990,2 52705  53.2161 151.9767 0001360  79.6161 280.4985 15.08832921113432,6917.902,95.438,540.708,538.826,0.0
52705.0,STARLINK-3844,PAYLOAD,2024-06-02 08:49:19,15.08833399,0.0001301,53.2162,151.0849,80.5203,279.5936,7.8435e-05,9.6e-06,0.0,0 STARLINK-3844,1 52705U 22053BB  24154.36758314  .00000960  00000-0  78435-4 0  9990,2 52705  53.2162 151.0849 0001301  80.5203 279.5936 15.08833399113893,6917.901,95.438,540.666,538.866,0.0
52705.0,STARLINK-3844,PAYLOAD,2024-06-03 07:04:42,15.08835112,0.0001244,53.2163,146.9219,65.3285,294.7837,0.00024826,3.665e-05,0.0,0 STARLINK-3844,1 52705U 22053BB  24155.29494093  .00003665  00000-0  24826-3 0  9993,2 52705  53.2163 146.9219 0001244  65.3285 294.7837 15.08835112113608,6917.895,95.438,540.621,538.9,0.0
52705.0,STARLINK-3844,PAYLOAD,2024-06-03 22:58:33,15.088516,0.0001264,53.2163,143.9479,72.9865,287.1265,0.00015752,2.221e-05,0.0,0 STARLINK-3844,1 52705U 22053BB  24155.95733422  .00002221  00000-0  15752-3 0  9993,2 52705  53.2163 143.9479 0001264  72.9865 287.1265 15.08851600114133,6917.845,95.437,540.584,538.836,0.0
52705.0,STARLINK-3844,PAYLOAD,2024-06-04 05:20:05,15.08855611,0.0001243,53.2163,142.7589,74.5747,285.5382,0.00018306,2.628e-05,0.0,0 STARLINK-3844,1 52705U 22053BB  24156.22228960  .00002628  00000-0  18306-3 0  9999,2 52705  53.2163 142.7589 0001243  74.5747 285.5382 15.08855611113740,6917.833,95.437,540.558,538.838,0.0
52705.0,STARLINK-3844,PAYLOAD,2024-06-04 06:55:28,15.0885976,0.0001297,53.2163,142.4613,72.0433,288.07,0.00020568,2.989e-05,0.0,0 STARLINK-3844,1 52705U 22053BB  24156.28852640  .00002989  00000-0  20568-3 0  9996,2 52705  53.2163 142.4613 0001297  72.0433 288.0700 15.08859760114189,6917.82,95.436,540.582,538.788,0.0
